HST                     
1 20580U 90037B   26068.15977042  .00009063  00000+0  30023-3 0  9999
2 20580  28.4717  43.6133 0001837 120.9992 239.0785 15.29473555773239
STARLINK-35776          
1 66282U 25247T   26068.57468242  .00026985  00000+0  91943-3 0  9992
2 66282  53.1585 192.1456 0004432 169.0522 191.0576 15.30210742 21017
